[{"OBJECT_NAME":"STARLINK-5282","OBJECT_ID":"2022-141N","EPOCH":"2026-03-18T23:02:39.932160","MEAN_MOTION":15.08837727,"ECCENTRICITY":0.00014794,"INCLINATION":53.2187,"RA_OF_ASC_NODE":322.0541,"ARG_OF_PERICENTER":88.8757,"MEAN_ANOMALY":271.2405,"EPHEMERIS_TYPE":0,"CLASSIFICATION_TYPE":"U","NORAD_CAT_ID":54169,"ELEMENT_SET_NO":999,"REV_AT_EPOCH":18726,"BSTAR":-2.0914858e-5,"MEAN_MOTION_DOT":-6.21e-6,"MEAN_MOTION_DDOT":0},{"OBJECT_NAME":"STARLINK-5155","OBJECT_ID":"2022-141P","EPOCH":"2026-03-18T22:36:15.780384","MEAN_MOTION":15.08837106,"ECCENTRICITY":0.00013182,"INCLINATION":53.2185,"RA_OF_ASC_NODE":322.6382,"ARG_OF_PERICENTER":95.6829,"MEAN_ANOMALY":264.4314,"EPHEMERIS_TYPE":0,"CLASSIFICATION_TYPE":"U","NORAD_CAT_ID":54170,"ELEMENT_SET_NO":999,"REV_AT_EPOCH":18725,"BSTAR":3.7162971e-5,"MEAN_MOTION_DOT":3.04e-6,"MEAN_MOTION_DDOT":0},{"OBJECT_NAME":"STARLINK-5117","OBJECT_ID":"2022-141R","EPOCH":"2026-03-18T22:25:38.821440","MEAN_MOTION":15.08838974,"ECCENTRICITY":0.00013463,"INCLINATION":53.2181,"RA_OF_ASC_NODE":322.593,"ARG_OF_PERICENTER":87.7956,"MEAN_ANOMALY":272.319,"EPHEMERIS_TYPE":0,"CLASSIFICATION_TYPE":"U","NORAD_CAT_ID":54172,"ELEMENT_SET_NO":999,"REV_AT_EPOCH":18725,"BSTAR":2.8939435e-5,"MEAN_MOTION_DOT":1.73e-6,"MEAN_MOTION_DDOT":0},{"OBJECT_NAME":"STARLINK-5242","OBJECT_ID":"2022-141S","EPOCH":"2026-03-18T23:07:58.478592","MEAN_MOTION":15.08842741,"ECCENTRICITY":0.00013502,"INCLINATION":53.2183,"RA_OF_ASC_NODE":322.072,"ARG_OF_PERICENTER":84.2366,"MEAN_ANOMALY":275.878,"EPHEMERIS_TYPE":0,"CLASSIFICATION_TYPE":"U","NORAD_CAT_ID":54173,"ELEMENT_SET_NO":999,"REV_AT_EPOCH":18726,"BSTAR":0.00010879338,"MEAN_MOTION_DOT":1.444e-5,"MEAN_MOTION_DDOT":0},{"OBJECT_NAME":"STARLINK-5248","OBJECT_ID":"2022-141T","EPOCH":"2026-03-19T05:39:28.811232","MEAN_MOTION":15.08861814,"ECCENTRICITY":0.00011607,"INCLINATION":53.2168,"RA_OF_ASC_NODE":266.0095,"ARG_OF_PERICENTER":92.7727,"MEAN_ANOMALY":267.3398,"EPHEMERIS_TYPE":0,"CLASSIFICATION_TYPE":"U","NORAD_CAT_ID":54174,"ELEMENT_SET_NO":999,"REV_AT_EPOCH":18807,"BSTAR":-0.00022620499,"MEAN_MOTION_DOT":-3.888e-5,"MEAN_MOTION_DDOT":0},{"OBJECT_NAME":"STARLINK-5256","OBJECT_ID":"2022-141U","EPOCH":"2026-03-18T22:30:57.140640","MEAN_MOTION":15.08844089,"ECCENTRICITY":0.00012859,"INCLINATION":53.218,"RA_OF_ASC_NODE":322.6157,"ARG_OF_PERICENTER":94.2327,"MEAN_ANOMALY":265.8812,"EPHEMERIS_TYPE":0,"CLASSIFICATION_TYPE":"U","NORAD_CAT_ID":54175,"ELEMENT_SET_NO":999,"REV_AT_EPOCH":18725,"BSTAR":0.00012858886,"MEAN_MOTION_DOT":1.759e-5,"MEAN_MOTION_DDOT":0},{"OBJECT_NAME":"STARLINK-5154","OBJECT_ID":"2022-141V","EPOCH":"2026-03-18T22:09:43.833600","MEAN_MOTION":15.0883908,"ECCENTRICITY":0.00013915,"INCLINATION":53.2183,"RA_OF_ASC_NODE":322.5248,"ARG_OF_PERICENTER":99.0812,"MEAN_ANOMALY":261.0338,"EPHEMERIS_TYPE":0,"CLASSIFICATION_TYPE":"U","NORAD_CAT_ID":54176,"ELEMENT_SET_NO":999,"REV_AT_EPOCH":18725,"BSTAR":4.2521324e-5,"MEAN_MOTION_DOT":3.89e-6,"MEAN_MOTION_DDOT":0},{"OBJECT_NAME":"STARLINK-5186","OBJECT_ID":"2022-141W","EPOCH":"2026-03-18T22:20:20.907456","MEAN_MOTION":15.08828519,"ECCENTRICITY":0.00013396,"INCLINATION":53.218,"RA_OF_ASC_NODE":322.5676,"ARG_OF_PERICENTER":84.7075,"MEAN_ANOMALY":275.407,"EPHEMERIS_TYPE":0,"CLASSIFICATION_TYPE":"U","NORAD_CAT_ID":54177,"ELEMENT_SET_NO":999,"REV_AT_EPOCH":18725,"BSTAR":-5.7319656e-5,"MEAN_MOTION_DOT":-1.2e-5,"MEAN_MOTION_DDOT":0},{"OBJECT_NAME":"STARLINK-5164","OBJECT_ID":"2022-141X","EPOCH":"2026-03-18T23:23:54.084192","MEAN_MOTION":15.08851317,"ECCENTRICITY":0.00012908,"INCLINATION":53.2174,"RA_OF_ASC_NODE":322.12,"ARG_OF_PERICENTER":71.9296,"MEAN_ANOMALY":288.1836,"EPHEMERIS_TYPE":0,"CLASSIFICATION_TYPE":"U","NORAD_CAT_ID":54178,"ELEMENT_SET_NO":999,"REV_AT_EPOCH":18726,"BSTAR":0.00032515481,"MEAN_MOTION_DOT":4.892e-5,"MEAN_MOTION_DDOT":0},{"OBJECT_NAME":"STARLINK-5122","OBJECT_ID":"2022-141Y","EPOCH":"2026-03-18T22:15:01.846944","MEAN_MOTION":15.08842829,"ECCENTRICITY":0.00011641,"INCLINATION":53.2178,"RA_OF_ASC_NODE":322.5445,"ARG_OF_PERICENTER":90.5717,"MEAN_ANOMALY":269.5409,"EPHEMERIS_TYPE":0,"CLASSIFICATION_TYPE":"U","NORAD_CAT_ID":54179,"ELEMENT_SET_NO":999,"REV_AT_EPOCH":18725,"BSTAR":9.3959418e-5,"MEAN_MOTION_DOT":1.208e-5,"MEAN_MOTION_DDOT":0},{"OBJECT_NAME":"STARLINK-5228","OBJECT_ID":"2022-141Z","EPOCH":"2026-03-19T08:00:01.999872","MEAN_MOTION":15.38628342,"ECCENTRICITY":0.00012082,"INCLINATION":53.228,"RA_OF_ASC_NODE":318.5366,"ARG_OF_PERICENTER":80.7332,"MEAN_ANOMALY":13.9007,"EPHEMERIS_TYPE":0,"CLASSIFICATION_TYPE":"U","NORAD_CAT_ID":54180,"ELEMENT_SET_NO":999,"REV_AT_EPOCH":580,"BSTAR":0.020487155,"MEAN_MOTION_DOT":0.00861131,"MEAN_MOTION_DDOT":0},{"OBJECT_NAME":"STARLINK-5227","OBJECT_ID":"2022-141AA","EPOCH":"2026-03-18T23:34:30.095328","MEAN_MOTION":15.08843622,"ECCENTRICITY":0.00014057,"INCLINATION":53.2178,"RA_OF_ASC_NODE":322.1838,"ARG_OF_PERICENTER":88.5157,"MEAN_ANOMALY":271.5996,"EPHEMERIS_TYPE":0,"CLASSIFICATION_TYPE":"U","NORAD_CAT_ID":54181,"ELEMENT_SET_NO":999,"REV_AT_EPOCH":18726,"BSTAR":9.944263e-5,"MEAN_MOTION_DOT":1.295e-5,"MEAN_MOTION_DDOT":0},{"OBJECT_NAME":"STARLINK-5231","OBJECT_ID":"2022-141AB","EPOCH":"2026-03-19T06:58:17.126400","MEAN_MOTION":15.08837253,"ECCENTRICITY":0.00014849,"INCLINATION":53.2172,"RA_OF_ASC_NODE":290.6569,"ARG_OF_PERICENTER":91.9855,"MEAN_ANOMALY":268.1307,"EPHEMERIS_TYPE":0,"CLASSIFICATION_TYPE":"U","NORAD_CAT_ID":54182,"ELEMENT_SET_NO":999,"REV_AT_EPOCH":18773,"BSTAR":-1.1049138e-5,"MEAN_MOTION_DOT":-4.64e-6,"MEAN_MOTION_DDOT":0},{"OBJECT_NAME":"STARLINK-5239","OBJECT_ID":"2022-141AC","EPOCH":"2026-03-18T23:13:16.909248","MEAN_MOTION":15.08828067,"ECCENTRICITY":0.00011723,"INCLINATION":53.218,"RA_OF_ASC_NODE":322.0929,"ARG_OF_PERICENTER":85.457,"MEAN_ANOMALY":274.6556,"EPHEMERIS_TYPE":0,"CLASSIFICATION_TYPE":"U","NORAD_CAT_ID":54183,"ELEMENT_SET_NO":999,"REV_AT_EPOCH":18726,"BSTAR":-8.7809161e-5,"MEAN_MOTION_DOT":-1.685e-5,"MEAN_MOTION_DDOT":0},{"OBJECT_NAME":"STARLINK-5162","OBJECT_ID":"2022-141AD","EPOCH":"2026-03-18T23:20:05.198496","MEAN_MOTION":15.0883602,"ECCENTRICITY":0.00014591,"INCLINATION":53.2191,"RA_OF_ASC_NODE":322.8133,"ARG_OF_PERICENTER":89.5632,"MEAN_ANOMALY":270.5527,"EPHEMERIS_TYPE":0,"CLASSIFICATION_TYPE":"U","NORAD_CAT_ID":54184,"ELEMENT_SET_NO":999,"REV_AT_EPOCH":18725,"BSTAR":2.0089344e-5,"MEAN_MOTION_DOT":3.2e-7,"MEAN_MOTION_DDOT":0},{"OBJECT_NAME":"STARLINK-5235","OBJECT_ID":"2022-141AE","EPOCH":"2026-03-18T23:29:10.756608","MEAN_MOTION":15.08850588,"ECCENTRICITY":0.00011787,"INCLINATION":53.2174,"RA_OF_ASC_NODE":322.1614,"ARG_OF_PERICENTER":86.488,"MEAN_ANOMALY":273.6247,"EPHEMERIS_TYPE":0,"CLASSIFICATION_TYPE":"U","NORAD_CAT_ID":54185,"ELEMENT_SET_NO":999,"REV_AT_EPOCH":18726,"BSTAR":0.00013949322,"MEAN_MOTION_DOT":1.933e-5,"MEAN_MOTION_DDOT":0}]
