STARLINK-5282           
1 54169U 22141N   26077.96018440 -.00000621  00000+0 -20915-4 0  9990
2 54169  53.2187 322.0541 0001479  88.8757 271.2405 15.08837727187267
STARLINK-5155           
1 54170U 22141P   26077.94184931  .00000304  00000+0  37163-4 0  9998
2 54170  53.2185 322.6382 0001318  95.6829 264.4314 15.08837106187257
STARLINK-5117           
1 54172U 22141R   26077.93447710  .00000173  00000+0  28939-4 0  9991
2 54172  53.2181 322.5930 0001346  87.7956 272.3190 15.08838974187251
STARLINK-5242           
1 54173U 22141S   26077.96387128  .00001444  00000+0  10879-3 0  9996
2 54173  53.2183 322.0720 0001350  84.2366 275.8780 15.08842741187269
STARLINK-5248           
1 54174U 22141T   26078.23575013 -.00003888  00000+0 -22620-3 0  9993
2 54174  53.2168 266.0095 0001160  92.7727 267.3398 15.08861814188072
STARLINK-5256           
1 54175U 22141U   26077.93816135  .00001759  00000+0  12859-3 0  9999
2 54175  53.2180 322.6157 0001285  94.2327 265.8812 15.08844089187254
STARLINK-5154           
1 54176U 22141V   26077.92342400  .00000389  00000+0  42521-4 0  9996
2 54176  53.2183 322.5248 0001391  99.0812 261.0338 15.08839080187254
STARLINK-5186           
1 54177U 22141W   26077.93079754 -.00001200  00000+0 -57320-4 0  9995
2 54177  53.2180 322.5676 0001339  84.7075 275.4070 15.08828519187258
STARLINK-5164           
1 54178U 22141X   26077.97493153  .00004892  00000+0  32515-3 0  9999
2 54178  53.2174 322.1200 0001290  71.9296 288.1836 15.08851317187264
STARLINK-5122           
1 54179U 22141Y   26077.92710471  .00001208  00000+0  93959-4 0  9998
2 54179  53.2178 322.5445 0001164  90.5717 269.5409 15.08842829187255
STARLINK-5228           
1 54180U 22141Z   26078.33335648  .00861131  00000+0  20487-1 0  9997
2 54180  53.2280 318.5366 0001208  80.7332  13.9007 15.38628342  5801
STARLINK-5227           
1 54181U 22141AA  26077.98229277  .00001295  00000+0  99443-4 0  9996
2 54181  53.2178 322.1838 0001405  88.5157 271.5996 15.08843622187260
STARLINK-5231           
1 54182U 22141AB  26078.29047600 -.00000464  00000+0 -11049-4 0  9995
2 54182  53.2172 290.6569 0001484  91.9855 268.1307 15.08837253187738
STARLINK-5239           
1 54183U 22141AC  26077.96755682 -.00001685  00000+0 -87809-4 0  9998
2 54183  53.2180 322.0929 0001172  85.4570 274.6556 15.08828067187263
STARLINK-5162           
1 54184U 22141AD  26077.97228239  .00000032  00000+0  20089-4 0  9993
2 54184  53.2191 322.8133 0001459  89.5632 270.5527 15.08836020187253
STARLINK-5235           
1 54185U 22141AE  26077.97859672  .00001933  00000+0  13949-3 0  9992
2 54185  53.2174 322.1614 0001178  86.4880 273.6247 15.08850588187260
